CUTE-1 (CO-55)          
1 27844U 03031E   26157.49994927  .00000321  00000+0  15775-3 0  9999
2 27844  98.6735 166.1932 0008851 210.1158 149.9513 14.24329258190151
CUBESAT XI-IV (CO-57)   
1 27848U 03031J   26157.55333329  .00000268  00000+0  13659-3 0  9992
2 27848  98.6767 165.9671 0008459 230.3427 129.7005 14.23615194189868
CUBESAT XI-V            
1 28895U 05043F   26157.66697904  .00001638  00000+0  26546-3 0  9995
2 28895  98.2975 313.0688 0013037 235.8954 124.1016 14.72603733100207
CUTE-1.7+APD II (CO-65) 
1 32785U 08021C   26157.77451934  .00006623  00000+0  41855-3 0  9999
2 32785  97.8270 138.9776 0010425  69.3046 290.9298 15.09350971983628
CANX-2                  
1 32790U 08021H   26157.85385289  .00003894  00000+0  27460-3 0  9996
2 32790  97.8634 137.4322 0012220  81.4621 278.7990 15.05542182983253
SEEDS II (CO-66)        
1 32791U 08021J   26157.55833225  .00023420  00000+0  75009-3 0  9991
2 32791  97.7518 154.9517 0002601  35.3933 324.7480 15.32385592985663
SWISSCUBE               
1 35932U 09051B   26156.46919883  .00001141  00000+0  23506-3 0  9990
2 35932  98.4043  64.1532 0005430 246.3597 113.7034 14.62458715887444
BEESAT-1                
1 35933U 09051C   26157.97853478  .00000904  00000+0  19130-3 0  9999
2 35933  98.3972  65.3456 0003893 257.6051 102.4714 14.61704086887695
ITUPSAT1                
1 35935U 09051E   26155.69953963  .00000958  00000+0  20796-3 0  9997
2 35935  98.4056  62.2366 0006134 280.9538  79.0971 14.60421767886916
TISAT 1                 
1 36799U 10035E   26157.66327347  .00026497  00000+0  87699-3 0  9991
2 36799  98.0706 103.2819 0000106  46.3405 313.7844 15.31307713866099
AEROCUBE 4.5A           
1 38767U 12048K   26157.10560387  .00391799  62769-4  14146-2 0  9997
2 38767  64.6266  67.2252 0019485 215.0043 144.9836 15.88053967370893
STRAND-1                
1 39090U 13009E   26157.75196471  .00000310  00000+0  11872-3 0  9990
2 39090  98.3920 338.2434 0007400 261.0768  98.9581 14.37157162695560
BRITE-AUSTRIA           
1 39091U 13009F   26157.76034059  .00000191  00000+0  79724-4 0  9993
2 39091  98.3993 337.4545 0008954 271.7200  88.2961 14.36537975695555
NEE-01 PEGASO           
1 39151U 13018B   26157.61390502  .00004027  00000+0  38676-3 0  9994
2 39151  98.1214 301.4159 0012357 192.5106 167.5808 14.93609178709123
POPACS 2                
1 39269U 13055E   26157.70761038  .00014344  00000+0  24487-3 0  9999
2 39269  80.9909 156.1865 0417203 227.4609 129.0682 14.90961161661655
POPACS 3                
1 39270U 13055F   26157.94898708  .00012298  00000+0  28966-3 0  9994
2 39270  81.0012 240.2844 0553014 101.1430 265.2435 14.55925470637068
ZACUBE-1 (TSHEPISOSAT)  
1 39417U 13066B   26157.67555400  .00004996  00000+0  38849-3 0  9995
2 39417  97.8101 119.9558 0039962 284.7807  74.8990 15.01121821679152
WNISAT-1                
1 39423U 13066H   26157.16227705  .00000787  00000+0  15245-3 0  9999
2 39423  97.7191 307.1019 0161673 266.6015  91.6681 14.58045873665124
TRITON-1                
1 39427U 13066M   26157.82815427  .00002316  00000+0  28204-3 0  9999
2 39427  97.8250  67.8709 0088371 268.1877  90.9213 14.81667628672559
GOMX-1                  
1 39430U 13066Q   26157.90370170  .00002123  00000+0  32248-3 0  9992
2 39430  97.6491 359.0151 0130122 110.2256 251.2997 14.69420648668400
CUBEBUG-2 (LO-74)       
1 39440U 13066AA  26156.80918561  .00005560  00000+0  51354-3 0  9990
2 39440  97.8908 105.7402 0059434  65.9901 294.7524 14.93668030675299
NEE-02 KRYSAOR          
1 39441U 13066AB  26157.10320968  .00002852  00000+0  31498-3 0  9991
2 39441  97.8890  96.3978 0067671 105.6781 255.1914 14.86571757674556
FUNCUBE-1 (AO-73)       
1 39444U 13066AE  26157.18462751  .00009267  00000+0  57636-3 0  9998
2 39444  97.8278 128.4023 0034656 239.5624 120.2179 15.09358417678008
UWE-3                   
1 39446U 13066AG  26157.65461373  .00005074  00000+0  43622-3 0  9993
2 39446  97.8693 113.6587 0049030 356.7161   3.3731 14.96941234676005
BRITE-CA1 (TORONTO)     
1 40020U 14033L   26157.64225058  .00000796  00000+0  12740-3 0  9998
2 40020  97.9728 286.7655 0077539 311.3532  48.1023 14.72662532640666
DUCHIFAT-1              
1 40021U 14033M   26157.65384402  .00106168  00000+0  11801-2 0  9995
2 40021  98.0457 215.3530 0004526 133.6949 226.4683 15.62532065654105
NANOSATC-BR1            
1 40024U 14033Q   26157.61940454  .00020300  00000+0  67700-3 0  9992
2 40024  98.0730 189.0736 0003289 194.1047 166.0100 15.31117398652366
QB50P1                  
1 40025U 14033R   26157.60453559  .00009284  00000+0  45860-3 0  9998
2 40025  98.0970 168.0100 0007028 258.4683 101.5761 15.18097081651424
QB50P2                  
1 40032U 14033Y   26157.79725213  .00009361  00000+0  50440-3 0  9991
2 40032  98.0756 154.0321 0006914 197.9731 162.1256 15.15026362651094
PERSEUS-M2              
1 40037U 14033AD  26157.89302991  .00002193  00000+0  20339-3 0  9991
2 40037  97.9978 108.2247 0011384 343.1209  16.9631 14.95485601649242
